ASTROCAST-0402          
1 55109U 23001DE  26068.80661100  .00010930  00000+0  41835-3 0  9996
2 55109  97.5556 160.6821 0004209 216.6984 143.3966 15.26734153129364
STARLINK-31000          
1 58488U 23186R   26068.41197094  .00000553  00000+0  29611-4 0  9995
2 58488  43.0013  65.2185 0000863 279.8571  80.2183 15.27580413125847
